NORAD_CAT_ID,OBJECT_NAME,OBJECT_TYPE,EPOCH,MEAN_MOTION,ECCENTRICITY,INCLINATION,RA_OF_ASC_NODE,ARG_OF_PERICENTER,MEAN_ANOMALY,BSTAR,MEAN_MOTION_DOT,MEAN_MOTION_DDOT,TLE_LINE0,TLE_LINE1,TLE_LINE2,SEMIMAJOR_AXIS,PERIOD,APOGEE,PERIGEE,DECAYED
51793.0,STARLINK-3633,PAYLOAD,2023-03-25 04:58:52,15.08810539,0.0001724,53.2148,159.5944,91.249,268.87,-0.00069756,-0.00011364,0.0,0 STARLINK-3633,1 51793U 22017AB  23084.20755247 -.00011364  00000-0 -69756-3 0  9999,2 51793  53.2148 159.5944 0001724  91.2490 268.8700 15.08810539 60856,6917.97,95.439,541.028,538.643,0.0
51793.0,STARLINK-3633,PAYLOAD,2023-03-25 11:20:25,15.0880429,0.0001281,53.2131,158.4051,96.9194,263.1944,-0.00068267,-0.00011125,0.0,0 STARLINK-3633,1 51793U 22017AB  23084.47251880 -.00011125  00000-0 -68267-3 0  9993,2 51793  53.2131 158.4051 0001281  96.9194 263.1944 15.08804290 60895,6917.99,95.44,540.741,538.968,0.0
51793.0,STARLINK-3633,PAYLOAD,2023-03-25 22:28:07,15.08811651,0.0001621,53.2135,156.3199,140.3628,219.7483,-0.00047988,-7.911e-05,0.0,0 STARLINK-3633,1 51793U 22017AB  23084.93619947 -.00007911  00000-0 -47988-3 0  9991,2 51793  53.2135 156.3199 0001621 140.3628 219.7483 15.08811651 60965,6917.967,95.439,540.953,538.711,0.0
51793.0,STARLINK-3633,PAYLOAD,2023-03-26 11:11:12,15.08835558,0.0001389,53.2138,153.9438,109.3031,250.8112,-0.00012276,-2.241e-05,0.0,0 STARLINK-3633,1 51793U 22017AB  23085.46611509 -.00002241  00000-0 -12276-3 0  9999,2 51793  53.2138 153.9438 0001389 109.3031 250.8112 15.08835558 61048,6917.894,95.438,540.72,538.798,0.0
51793.0,STARLINK-3633,PAYLOAD,2023-03-27 14:12:46,15.08843454,0.0001575,53.2136,148.8861,110.2781,249.838,0.00072046,0.00011198,0.0,0 STARLINK-3633,1 51793U 22017AB  23086.59220008  .00011198  00000-0  72046-3 0  9994,2 51793  53.2136 148.8861 0001575 110.2781 249.8380 15.08843454 61217,6917.87,95.437,540.824,538.645,0.0
51793.0,STARLINK-3633,PAYLOAD,2023-03-27 20:34:18,15.08849642,0.0001439,53.2148,147.694,106.9247,253.1903,0.0005628,8.683e-05,0.0,0 STARLINK-3633,1 51793U 22017AB  23086.85715589  .00008683  00000-0  56280-3 0  9993,2 51793  53.2148 147.6940 0001439 106.9247 253.1903 15.08849642 61251,6917.851,95.437,540.711,538.72,0.0
51793.0,STARLINK-3633,PAYLOAD,2023-03-28 04:31:14,15.0884351,0.0001461,53.2133,146.2088,125.7523,234.3605,0.00014325,1.993e-05,0.0,0 STARLINK-3633,1 51793U 22017AB  23087.18835843  .00001993  00000-0  14325-3 0  9997,2 51793  53.2133 146.2088 0001461 125.7523 234.3605 15.08843510 61308,6917.87,95.437,540.745,538.724,0.0
51793.0,STARLINK-3633,PAYLOAD,2023-03-28 10:52:46,15.08852746,0.0001336,53.2138,145.0218,99.1643,260.9501,0.00017085,2.433e-05,0.0,0 STARLINK-3633,1 51793U 22017AB  23087.45331391  .00002433  00000-0  17085-3 0  9992,2 51793  53.2138 145.0218 0001336  99.1643 260.9501 15.08852746 61348,6917.841,95.437,540.631,538.782,0.0
51793.0,STARLINK-3633,PAYLOAD,2023-03-29 10:43:33,15.08843886,0.0001375,53.2137,140.5586,109.0926,251.0215,-9.9534e-05,-1.872e-05,0.0,0 STARLINK-3633,1 51793U 22017AB  23088.44691299 -.00001872  00000-0 -99534-4 0  9996,2 51793  53.2137 140.5586 0001375 109.0926 251.0215 15.08843886 61497,6917.869,95.437,540.685,538.782,0.0
51793.0,STARLINK-3633,PAYLOAD,2023-03-29 20:15:52,15.08838692,0.0001343,53.2148,138.7755,97.6146,262.4999,-0.00013093,-2.371e-05,0.0,0 STARLINK-3633,1 51793U 22017AB  23088.84435620 -.00002371  00000-0 -13093-3 0  9994,2 51793  53.2148 138.7755 0001343  97.6146 262.4999 15.08838692 61558,6917.884,95.438,540.678,538.82,0.0
51793.0,STARLINK-3633,PAYLOAD,2023-03-29 23:26:39,15.08832143,0.0001458,53.2148,138.1846,111.7294,248.3853,-1.697e-05,-5.58e-06,0.0,0 STARLINK-3633,1 51793U 22017AB  23088.97684073 -.00000558  00000-0 -16970-4 0  9999,2 51793  53.2148 138.1846 0001458 111.7294 248.3853 15.08832143 61571,6917.904,95.438,540.778,538.761,0.0
51793.0,STARLINK-3633,PAYLOAD,2023-03-30 20:06:39,15.08837424,0.0001249,53.2141,134.3161,100.161,259.9523,3.7587e-05,3.1e-06,0.0,0 STARLINK-3633,1 51793U 22017AB  23089.83796177  .00000310  00000-0  37587-4 0  9995,2 51793  53.2141 134.3161 0001249 100.1610 259.9523 15.08837424 61708,6917.888,95.438,540.617,538.889,0.0
51793.0,STARLINK-3633,PAYLOAD,2023-03-31 02:28:12,15.08835334,0.0001321,53.214,133.1275,92.4377,267.6766,0.00016129,2.28e-05,0.0,0 STARLINK-3633,1 51793U 22017AB  23090.10292596  .00002280  00000-0  16129-3 0  9999,2 51793  53.2140 133.1275 0001321  92.4377 267.6766 15.08835334 61741,6917.895,95.438,540.674,538.846,0.0
51793.0,STARLINK-3633,PAYLOAD,2023-04-01 08:40:32,15.08834356,0.0001396,53.2139,127.4775,106.0247,254.0899,6.9894e-05,8.24e-06,0.0,0 STARLINK-3633,1 51793U 22017AB  23091.36148910  .00000824  00000-0  69894-4 0  9998,2 51793  53.2139 127.4775 0001396 106.0247 254.0899 15.08834356 61931,6917.898,95.438,540.728,538.797,0.0
51793.0,STARLINK-3633,PAYLOAD,2023-04-01 19:48:14,15.08836067,0.0001303,53.214,125.3947,98.0231,262.0909,7.1871e-05,8.56e-06,0.0,0 STARLINK-3633,1 51793U 22017AB  23091.82517045  .00000856  00000-0  71871-4 0  9991,2 51793  53.2140 125.3947 0001303  98.0231 262.0909 15.08836067 62003,6917.892,95.438,540.659,538.856,0.0
51793.0,STARLINK-3633,PAYLOAD,2023-04-02 11:42:05,15.08842687,0.0001341,53.214,122.4195,109.5562,250.5575,0.00010336,1.358e-05,0.0,0 STARLINK-3633,1 51793U 22017AB  23092.48756769  .00001358  00000-0  10336-3 0  9998,2 51793  53.2140 122.4195 0001341 109.5562 250.5575 15.08842687 62100,6917.872,95.437,540.665,538.809,0.0
51793.0,STARLINK-3633,PAYLOAD,2023-04-03 08:22:06,15.08842831,0.000127,53.2145,118.5536,101.2683,258.8452,0.00016672,2.367e-05,0.0,0 STARLINK-3633,1 51793U 22017AB  23093.34868620  .00002367  00000-0  16672-3 0  9994,2 51793  53.2145 118.5536 0001270 101.2683 258.8452 15.08842831 62234,6917.872,95.437,540.615,538.858,0.0
51793.0,STARLINK-3633,PAYLOAD,2023-04-04 06:37:30,15.08842947,0.0001332,53.2151,114.39,104.4306,255.6834,0.00010733,1.421e-05,0.0,0 STARLINK-3633,1 51793U 22017AB  23094.27604707  .00001421  00000-0  10733-3 0  9993,2 51793  53.2151 114.3900 0001332 104.4306 255.6834 15.08842947 62378,6917.871,95.437,540.658,538.815,0.0
51793.0,STARLINK-3633,PAYLOAD,2023-04-04 08:12:53,15.08844661,0.0001353,53.2152,114.0929,107.7702,252.3438,9.1787e-05,1.173e-05,0.0,0 STARLINK-3633,1 51793U 22017AB  23094.34228585  .00001173  00000-0  91787-4 0  9990,2 51793  53.2152 114.0929 0001353 107.7702 252.3438 15.08844661 62386,6917.866,95.437,540.667,538.795,0.0
51793.0,STARLINK-3633,PAYLOAD,2023-04-05 04:52:54,15.08834672,0.0001479,53.2159,110.2276,111.7783,248.3367,4.8398e-06,-2.11e-06,0.0,0 STARLINK-3633,1 51793U 22017AB  23095.20341402 -.00000211  00000-0  48398-5 0  9994,2 51793  53.2159 110.2276 0001479 111.7783 248.3367 15.08834672 62511,6917.897,95.438,540.785,538.739,0.0
51793.0,STARLINK-3633,PAYLOAD,2023-04-05 09:39:04,15.08835011,0.0001394,53.2158,109.3358,107.037,253.0775,-2.7273e-06,-3.31e-06,0.0,0 STARLINK-3633,1 51793U 22017AB  23095.40213426 -.00000331  00000-0 -27273-5 0  9993,2 51793  53.2158 109.3358 0001394 107.0370 253.0775 15.08835011 62543,6917.896,95.438,540.725,538.796,0.0
51793.0,STARLINK-3633,PAYLOAD,2023-04-06 07:54:27,15.08841756,0.0001267,53.2155,105.1724,98.7027,261.4109,5.5333e-05,5.93e-06,0.0,0 STARLINK-3633,1 51793U 22017AB  23096.32948945  .00000593  00000-0  55333-4 0  9991,2 51793  53.2155 105.1724 0001267  98.7027 261.4109 15.08841756 62687,6917.875,95.437,540.617,538.864,0.0
51793.0,STARLINK-3633,PAYLOAD,2023-04-06 17:26:46,15.08838356,0.000123,53.2158,103.3881,93.5106,266.6027,7.9077e-05,9.71e-06,0.0,0 STARLINK-3633,1 51793U 22017AB  23096.72693131  .00000971  00000-0  79077-4 0  9990,2 51793  53.2158 103.3881 0001230  93.5106 266.6027 15.08838356 62740,6917.885,95.438,540.601,538.9,0.0
51793.0,STARLINK-3633,PAYLOAD,2023-04-07 09:20:38,15.08838736,0.0001277,53.216,100.4145,92.3282,267.7856,0.00011189,1.493e-05,0.0,0 STARLINK-3633,1 51793U 22017AB  23097.38933206  .00001493  00000-0  11189-3 0  9992,2 51793  53.2160 100.4145 0001277  92.3282 267.7856 15.08838736 62842,6917.884,95.438,540.633,538.866,0.0
51793.0,STARLINK-3633,PAYLOAD,2023-04-08 09:11:25,15.08840154,0.0001258,53.216,95.9543,88.2217,271.892,1.9017e-05,1.5e-07,0.0,0 STARLINK-3633,1 51793U 22017AB  23098.38293525  .00000015  00000-0  19017-4 0  9994,2 51793  53.2160  95.9543 0001258  88.2217 271.8920 15.08840154 62994,6917.88,95.438,540.615,538.875,0.0
51793.0,STARLINK-3633,PAYLOAD,2023-04-08 17:08:21,15.08840079,0.0001271,53.216,94.468,86.5264,273.5873,3.424e-05,2.57e-06,0.0,0 STARLINK-3633,1 51793U 22017AB  23098.71413489  .00000257  00000-0  34240-4 0  9997,2 51793  53.2160  94.4680 0001271  86.5264 273.5873 15.08840079 63047,6917.88,95.438,540.624,538.866,0.0
51793.0,STARLINK-3633,PAYLOAD,2023-04-09 09:02:12,15.08845441,0.0001264,53.2158,91.494,86.5877,273.526,8.1392e-05,1.008e-05,0.0,0 STARLINK-3633,1 51793U 22017AB  23099.37652938  .00001008  00000-0  81392-4 0  9999,2 51793  53.2158  91.4940 0001264  86.5877 273.5260 15.08845441 63141,6917.864,95.437,540.603,538.854,0.0
51793.0,STARLINK-3633,PAYLOAD,2023-04-09 18:34:31,15.08838385,0.0001442,53.2163,89.7105,78.4424,281.673,4.6523e-05,4.53e-06,0.0,0 STARLINK-3633,1 51793U 22017AB  23099.77397532  .00000453  00000-0  46523-4 0  9999,2 51793  53.2163  89.7105 0001442  78.4424 281.6730 15.08838385 63204,6917.885,95.438,540.748,538.753,0.0
51793.0,STARLINK-3633,PAYLOAD,2023-04-10 08:52:59,15.08845097,0.0001306,53.2164,87.0318,93.2197,266.8944,0.00010786,1.429e-05,0.0,0 STARLINK-3633,1 51793U 22017AB  23100.37012892  .00001429  00000-0  10786-3 0  9996,2 51793  53.2164  87.0318 0001306  93.2197 266.8944 15.08845097 63292,6917.865,95.437,540.633,538.826,0.0
51793.0,STARLINK-3633,PAYLOAD,2023-04-11 08:43:46,15.08844259,0.0001306,53.2167,82.5719,91.5939,268.5203,5.7432e-05,6.26e-06,0.0,0 STARLINK-3633,1 51793U 22017AB  23101.36372898  .00000626  00000-0  57432-4 0  9999,2 51793  53.2167  82.5719 0001306  91.5939 268.5203 15.08844259 63448,6917.867,95.437,540.636,538.829,0.0
